0 COSMOS 1365
1 13175U 82043A   13283.13348097 -.00000093  00000-0 -25475-5 0   607
2 13175 065.0708 046.3234 0067426 229.2188 187.8812 13.89535183596432
0 COSMOS 1365
1 13175U 82043A   13284.14042632 -.00000097  00000-0 -59233-5 0   619
2 13175 065.0710 043.6981 0067343 228.9169 184.8994 13.89535488596578
0 COSMOS 1365
1 13175U 82043A   13285.50797266 -.00000082  00000-0  58833-5 0   629
2 13175 065.0713 040.1328 0067257 228.5333 185.7199 13.89535409596762
0 COSMOS 1365
1 13175U 82043A   13286.51991772 -.00000059  00000-0  24436-4 0   635
2 13175 065.0713 037.4947 0067190 228.2491 207.7314 13.89535278596900
0 COSMOS 1365
1 13175U 82043A   13287.75137550 -.00000058  00000-0  25111-4 0   649
2 13175 065.0714 034.2843 0067115 227.9042 247.7995 13.89535358597073
0 COSMOS 1365
1 13175U 82043A   13289.46631821 -.00000033  00000-0  45564-4 0   657
2 13175 065.0713 029.8134 0067005 227.4201 186.3896 13.89535508597317
0 COSMOS 1365
1 13175U 82043A   13290.47448079 -.00000019  00000-0  56806-4 0   667
2 13175 065.0712 027.1852 0066927 227.1280 189.4892 13.89535453597454
0 COSMOS 1365
1 13175U 82043A   13290.60702265  .00000048  00000-0  38232-4 0   666
2 13175 065.0706 026.8459 0067815 226.1732 133.4172 13.89535945597472
0 COSMOS 1365
1 13175U 82043A   13291.48144584 -.00000040  00000-0  40144-4 0   676
2 13175 065.0711 024.5600 0066867 226.8437 186.5895 13.89535669597593
0 COSMOS 1365
1 13175U 82043A   13292.49408356 -.00000055  00000-0  27385-4 0   687
2 13175 065.0710 021.9200 0066801 226.5533 212.0708 13.89535922597737
0 COSMOS 1365
1 13175U 82043A   13293.50402385 -.00000046  00000-0  34830-4 0   690
2 13175 065.0710 019.2870 0066732 226.2463 224.0785 13.89535986597875
0 COSMOS 1365
1 13175U 82043A   13294.51059230 -.00000048  00000-0  33406-4 0   701
2 13175 065.0710 016.6629 0066678 225.9570 219.2029 13.89535997598018
0 COSMOS 1365
1 13175U 82043A   13296.15084502 -.00000083  00000-0  51684-5 0   712
2 13175 065.0709 012.3867 0066570 225.4962 144.1722 13.89536350598249
